OBJECT_NAME,OBJECT_ID,EPOCH,MEAN_MOTION,ECCENTRICITY,INCLINATION,RA_OF_ASC_NODE,ARG_OF_PERICENTER,MEAN_ANOMALY,EPHEMERIS_TYPE,CLASSIFICATION_TYPE,NORAD_CAT_ID,ELEMENT_SET_NO,REV_AT_EPOCH,BSTAR,MEAN_MOTION_DOT,MEAN_MOTION_DDOT
ONEWEB-0399,2021-132L,2026-07-11T12:52:10.182144,13.11416185,.0001624,87.8889,16.2217,74.0022,286.1285,0,U,50479,999,21879,-.13856E-2,-.478E-5,0
ONEWEB-0400,2021-132M,2026-07-09T14:52:42.150720,13.18684526,.00020179,87.9192,330.9835,98.1142,262.0219,0,U,50480,999,22456,.17582686E-3,.82E-6,0
ONEWEB-0401,2021-132N,2026-07-10T08:21:38.640960,13.18686333,.00016774,87.9189,330.8368,104.3596,255.7723,0,U,50481,999,22466,.17194294E-3,.81E-6,0
ONEWEB-0402,2021-132P,2026-07-10T09:17:28.721472,13.18687205,.00014028,87.9187,330.8180,104.2573,255.8715,0,U,50482,999,22469,.42063766E-4,.29E-6,0
ONEWEB-0403,2021-132Q,2026-07-11T07:45:03.343104,13.18686632,.0001836,87.9189,330.6563,92.4366,267.6976,0,U,50483,999,22477,.56423E-4,.35E-6,0
ONEWEB-0404,2021-132R,2026-07-11T12:25:18.899040,13.11414210,.0001896,87.8884,16.2225,80.3168,279.8174,0,U,50484,999,21888,.3188E-3,.126E-5,0
ONEWEB-0405,2021-132S,2026-07-11T08:04:28.067808,13.18684554,.0002367,87.9196,330.6382,97.4304,262.7097,0,U,50485,999,22517,.35456E-4,.27E-6,0
ONEWEB-0406,2021-132T,2026-07-10T08:11:55.530816,13.18686522,.00018622,87.9187,330.8513,80.9087,279.2255,0,U,50486,999,22467,.16690147E-3,.79E-6,0
ONEWEB-0407,2021-132U,2026-07-09T15:38:50.682336,13.18688005,.000188,87.9192,330.9814,103.9526,256.1815,0,U,50487,999,22452,.48733542E-4,.32E-6,0
ONEWEB-0409,2021-132V,2026-07-11T12:22:52.915008,13.11414239,.0001933,87.8868,16.2115,83.9443,276.1905,0,U,50488,999,21877,.35998E-3,.14E-5,0
ONEWEB-0412,2021-132W,2026-07-11T09:14:53.284416,13.18686148,.0001512,87.9195,330.6450,103.1538,256.9762,0,U,50489,999,22484,.1248E-3,.62E-6,0
ONEWEB-0413,2021-132X,2026-07-11T09:22:10.316352,13.18687618,.0001709,87.9185,330.6401,107.0915,253.0404,0,U,50490,999,22478,.10062E-3,.53E-6,0
ONEWEB-0414,2021-132Y,2026-07-11T09:00:19.116864,13.18687040,.0001754,87.9197,330.6265,102.1382,257.9946,0,U,50491,999,22481,.90692E-4,.49E-6,0
ONEWEB-0417,2021-132Z,2026-07-11T09:12:27.321120,13.18686608,.0001805,87.9192,330.6434,91.6609,268.4730,0,U,50492,999,22479,.17867E-3,.83E-6,0
ONEWEB-0418,2021-132AA,2026-07-11T09:26:49.456608,13.18686189,.0001928,87.9198,330.6434,88.7695,271.3658,0,U,50493,999,22485,-.48875E-4,-.6E-7,0
ONEWEB-0419,2021-132AB,2026-07-11T08:04:52.519008,13.18666002,.0002093,87.9193,330.6545,93.3841,266.7531,0,U,50494,999,22476,.13126E-3,.65E-6,0
ONEWEB-0420,2021-132AC,2026-07-10T09:22:19.206912,13.18687255,.00019254,87.9183,330.8430,104.2690,255.8656,0,U,50495,999,22463,.29253148E-4,.24E-6,0
ONEWEB-0421,2021-132AD,2026-07-11T08:53:02.923872,13.18685650,.0001356,87.9195,330.6469,98.2349,261.8937,0,U,50496,999,22480,.24041E-3,.108E-5,0
ONEWEB-0424,2021-132AE,2026-07-11T07:57:11.736576,13.18686469,.0002165,87.9194,330.6533,93.8668,266.2712,0,U,50497,999,22482,.19511E-3,.9E-6,0
ONEWEB-0426,2021-132AF,2026-07-11T08:46:58.212192,13.18685476,.0001482,87.9191,330.6379,77.5683,282.5615,0,U,50498,999,22477,-.72626E-4,-.16E-6,0
ONEWEB-0427,2021-132AG,2026-07-10T08:14:21.677280,13.18686428,.00018654,87.9191,330.8303,91.2447,268.8898,0,U,50499,999,22466,.88927018E-4,.48E-6,0
ONEWEB-0429,2021-132AH,2026-07-11T07:35:19.616928,13.18687231,.0001786,87.9175,330.6603,97.0556,263.0779,0,U,50500,999,22476,.11955E-3,.6E-6,0
ONEWEB-0430,2021-132AJ,2026-07-10T07:37:55.578432,13.18688391,.0001978,87.9182,330.8566,103.8739,256.2613,0,U,50501,999,22467,.67318212E-4,.39E-6,0
ONEWEB-0432,2021-132AK,2026-07-11T08:43:08.010624,13.18685662,.0002363,87.9192,330.6348,99.2065,260.9334,0,U,50502,999,22476,-.11106E-3,-.31E-6,0
ONEWEB-0440,2021-132AL,2026-07-11T07:47:28.394016,13.18686710,.0001566,87.9195,330.6540,105.2764,254.8541,0,U,50503,999,22475,.1891E-3,.87E-6,0
ONEWEB-0450,2021-132AM,2026-07-11T07:37:57.794592,13.18686886,.0001833,87.9190,330.6584,103.6985,256.4351,0,U,50504,999,22478,.35426E-3,.153E-5,0
ONEWEB-0410,2022-012A,2026-07-11T12:24:15.749280,13.17649907,.0001989,87.9152,1.0192,52.8851,307.2462,0,U,51622,999,21690,.20791E-4,.21E-6,0
ONEWEB-0411,2022-012B,2026-07-11T12:34:42.880224,13.10377986,.0002204,87.8830,31.4181,97.5763,262.5614,0,U,51623,999,21247,.43739E-4,.28E-6,0
ONEWEB-0415,2022-012C,2026-07-11T12:29:48.811776,13.10378507,.000214,87.8824,31.4172,87.1785,272.9588,0,U,51624,999,21247,-.36557E-3,-.115E-5,0
ONEWEB-0416,2022-012D,2026-07-10T23:57:15.692256,13.10376562,.0002186,87.8815,31.5373,85.9363,274.2014,0,U,51625,999,21244,.14696E-2,.526E-5,0
