ONEWEB-0399             
1 50479U 21132L   26192.53622896 -.00000478  00000+0 -13856-2 0  9990
2 50479  87.8889  16.2217 0001624  74.0022 286.1285 13.11416185218792
ONEWEB-0400             
1 50480U 21132M   26190.61993230  .00000082  00000+0  17583-3 0  9993
2 50480  87.9192 330.9835 0002017  98.1142 262.0219 13.18684526224566
ONEWEB-0401             
1 50481U 21132N   26191.34836390  .00000081  00000+0  17194-3 0  9995
2 50481  87.9189 330.8368 0001677 104.3596 255.7723 13.18686333224665
ONEWEB-0402             
1 50482U 21132P   26191.38713798  .00000029  00000+0  42064-4 0  9993
2 50482  87.9187 330.8180 0001402 104.2573 255.8715 13.18687205224690
ONEWEB-0403             
1 50483U 21132Q   26192.32295536  .00000035  00000+0  56423-4 0  9995
2 50483  87.9189 330.6563 0001836  92.4366 267.6976 13.18686632224777
ONEWEB-0404             
1 50484U 21132R   26192.51757985  .00000126  00000+0  31880-3 0  9998
2 50484  87.8884  16.2225 0001896  80.3168 279.8174 13.11414210218887
ONEWEB-0405             
1 50485U 21132S   26192.33643597  .00000027  00000+0  35456-4 0  9996
2 50485  87.9196 330.6382 0002367  97.4304 262.7097 13.18684554225179
ONEWEB-0406             
1 50486U 21132T   26191.34161494  .00000079  00000+0  16690-3 0  9993
2 50486  87.9187 330.8513 0001862  80.9087 279.2255 13.18686522224672
ONEWEB-0407             
1 50487U 21132U   26190.65197549  .00000032  00000+0  48734-4 0  9991
2 50487  87.9192 330.9814 0001880 103.9526 256.1815 13.18688005224526
ONEWEB-0409             
1 50488U 21132V   26192.51589022  .00000140  00000+0  35998-3 0  9997
2 50488  87.8868  16.2115 0001933  83.9443 276.1905 13.11414239218779
ONEWEB-0412             
1 50489U 21132W   26192.38533894  .00000062  00000+0  12480-3 0  9993
2 50489  87.9195 330.6450 0001512 103.1538 256.9762 13.18686148224841
ONEWEB-0413             
1 50490U 21132X   26192.39039718  .00000053  00000+0  10062-3 0  9996
2 50490  87.9185 330.6401 0001709 107.0915 253.0404 13.18687618224785
ONEWEB-0414             
1 50491U 21132Y   26192.37522126  .00000049  00000+0  90692-4 0  9998
2 50491  87.9197 330.6265 0001754 102.1382 257.9946 13.18687040224818
ONEWEB-0417             
1 50492U 21132Z   26192.38364955  .00000083  00000+0  17867-3 0  9994
2 50492  87.9192 330.6434 0001805  91.6609 268.4730 13.18686608224797
ONEWEB-0418             
1 50493U 21132AA  26192.39362797 -.00000006  00000+0 -48875-4 0  9999
2 50493  87.9198 330.6434 0001928  88.7695 271.3658 13.18686189224855
ONEWEB-0419             
1 50494U 21132AB  26192.33671897  .00000065  00000+0  13126-3 0  9991
2 50494  87.9193 330.6545 0002093  93.3841 266.7531 13.18666002224763
ONEWEB-0420             
1 50495U 21132AC  26191.39050008  .00000024  00000+0  29253-4 0  9996
2 50495  87.9183 330.8430 0001925 104.2690 255.8656 13.18687255224631
ONEWEB-0421             
1 50496U 21132AD  26192.37017273  .00000108  00000+0  24041-3 0  9995
2 50496  87.9195 330.6469 0001356  98.2349 261.8937 13.18685650224801
ONEWEB-0424             
1 50497U 21132AE  26192.33138584  .00000090  00000+0  19511-3 0  9997
2 50497  87.9194 330.6533 0002165  93.8668 266.2712 13.18686469224828
ONEWEB-0426             
1 50498U 21132AF  26192.36595153 -.00000016  00000+0 -72626-4 0  9997
2 50498  87.9191 330.6379 0001482  77.5683 282.5615 13.18685476224775
ONEWEB-0427             
1 50499U 21132AG  26191.34330645  .00000048  00000+0  88927-4 0  9992
2 50499  87.9191 330.8303 0001865  91.2447 268.8898 13.18686428224667
ONEWEB-0429             
1 50500U 21132AH  26192.31619927  .00000060  00000+0  11955-3 0  9996
2 50500  87.9175 330.6603 0001786  97.0556 263.0779 13.18687231224769
ONEWEB-0430             
1 50501U 21132AJ  26191.31800438  .00000039  00000+0  67318-4 0  9996
2 50501  87.9182 330.8566 0001978 103.8739 256.2613 13.18688391224679
ONEWEB-0432             
1 50502U 21132AK  26192.36328716 -.00000031  00000+0 -11106-3 0  9994
2 50502  87.9192 330.6348 0002363  99.2065 260.9334 13.18685662224766
ONEWEB-0440             
1 50503U 21132AL  26192.32463419  .00000087  00000+0  18910-3 0  9990
2 50503  87.9195 330.6540 0001566 105.2764 254.8541 13.18686710224758
ONEWEB-0450             
1 50504U 21132AM  26192.31803003  .00000153  00000+0  35426-3 0  9992
2 50504  87.9190 330.6584 0001833 103.6985 256.4351 13.18686886224780
ONEWEB-0410             
1 51622U 22012A   26192.51684895  .00000021  00000+0  20791-4 0  9994
2 51622  87.9152   1.0192 0001989  52.8851 307.2462 13.17649907216908
ONEWEB-0411             
1 51623U 22012B   26192.52410741  .00000028  00000+0  43739-4 0  9997
2 51623  87.8830  31.4181 0002204  97.5763 262.5614 13.10377986212473
ONEWEB-0415             
1 51624U 22012C   26192.52070384 -.00000115  00000+0 -36557-3 0  9991
2 51624  87.8824  31.4172 0002140  87.1785 272.9588 13.10378507212470
ONEWEB-0416             
1 51625U 22012D   26191.99809829  .00000526  00000+0  14696-2 0  9999
2 51625  87.8815  31.5373 0002186  85.9363 274.2014 13.10376562212448
